start=new Date('2023-05-31T00:00:00.000Z').valueOf();
sats=[{"EPOCH":"2023-05-30T18:52:07.030272","TLE_LINE1":"1 51759U 22016AX  23150.78619248 -.00000445  00000-0 -99034-5 0  9999","OBJECT_NAME":"STARLINK-3456","NORAD_CAT_ID":"51759","COUNTRY_CODE":"US","FILE":"3921192","OBJECT_ID":"2022-016AX","MEAN_MOTION_DDOT":"0.0000000000000","CENTER_NAME":"EARTH","MEAN_MOTION_DOT":"-0.00000445","TIME_SYSTEM":"UTC","MEAN_MOTION":"15.08833848","OBJECT_TYPE":"PAYLOAD","INCLINATION":"53.2158","APOAPSIS":"540.511","EPHEMERIS_TYPE":"0","REV_AT_EPOCH":"7064","ARG_OF_PERICENTER":"92.5729","RCS_SIZE":"LARGE","LAUNCH_DATE":"2022-02-21","ECCENTRICITY":"0.00010800","MEAN_ELEMENT_THEORY":"SGP4","CLASSIFICATION_TYPE":"U","SITE":"AFETR","BSTAR":"-0.00000990340000","ELEMENT_SET_NO":"999","SEMIMAJOR_AXIS":"6917.899","MEAN_ANOMALY":"267.5387","PERIAPSIS":"539.017","REF_FRAME":"TEME","PERIOD":"95.438","DECAY_DATE":null,"GP_ID":"232855241","TLE_LINE2":"2 51759  53.2158 180.7098 0001080  92.5729 267.5387 15.08833848 70642","RA_OF_ASC_NODE":"180.7098"},{"ECCENTRICITY":"0.00011000","LAUNCH_DATE":"2022-02-25","RCS_SIZE":"LARGE","BSTAR":"0.00013780000000","SITE":"AFWTR","CLASSIFICATION_TYPE":"U","MEAN_ELEMENT_THEORY":"SGP4","REF_FRAME":"TEME","PERIAPSIS":"539.026","MEAN_ANOMALY":"263.1656","SEMIMAJOR_AXIS":"6917.922","ELEMENT_SET_NO":"999","RA_OF_ASC_NODE":"210.2743","TLE_LINE2":"2 51768  53.2157 210.2743 0001100  96.9462 263.1656 15.08826315 70992","GP_ID":"232853489","DECAY_DATE":null,"PERIOD":"95.438","NORAD_CAT_ID":"51768","OBJECT_NAME":"STARLINK-3622","TLE_LINE1":"1 51768U 22017A   23150.88279506  .00001905  00000-0  13780-3 0  9992","EPOCH":"2023-05-30T21:11:13.493184","MEAN_MOTION_DOT":"0.00001905","CENTER_NAME":"EARTH","MEAN_MOTION_DDOT":"0.0000000000000","OBJECT_ID":"2022-017A","FILE":"3921192","COUNTRY_CODE":"US","INCLINATION":"53.2157","MEAN_MOTION":"15.08826315","OBJECT_TYPE":"PAYLOAD","TIME_SYSTEM":"UTC","ARG_OF_PERICENTER":"96.9462","EPHEMERIS_TYPE":"0","REV_AT_EPOCH":"7099","APOAPSIS":"540.548"},{"BSTAR":"0.00001377700000","SITE":"AFWTR","CLASSIFICATION_TYPE":"U","MEAN_ELEMENT_THEORY":"SGP4","ECCENTRICITY":"0.00012120","LAUNCH_DATE":"2022-02-25","RCS_SIZE":"LARGE","RA_OF_ASC_NODE":"210.3041","TLE_LINE2":"2 51769  53.2168 210.3041 0001212  79.7519 280.3610 15.08836521 69554","GP_ID":"232853739","DECAY_DATE":null,"PERIOD":"95.438","REF_FRAME":"TEME","PERIAPSIS":"538.918","MEAN_ANOMALY":"280.3610","SEMIMAJOR_AXIS":"6917.891","ELEMENT_SET_NO":"999","MEAN_MOTION_DOT":"-0.00000069","CENTER_NAME":"EARTH","MEAN_MOTION_DDOT":"0.0000000000000","OBJECT_ID":"2022-017B","FILE":"3921192","COUNTRY_CODE":"US","NORAD_CAT_ID":"51769","OBJECT_NAME":"STARLINK-3621","TLE_LINE1":"1 51769U 22017B   23150.87543218 -.00000069  00000-0  13777-4 0  9994","EPOCH":"2023-05-30T21:00:37.340352","ARG_OF_PERICENTER":"79.7519","REV_AT_EPOCH":"6955","EPHEMERIS_TYPE":"0","APOAPSIS":"540.594","INCLINATION":"53.2168","MEAN_MOTION":"15.08836521","OBJECT_TYPE":"PAYLOAD","TIME_SYSTEM":"UTC"},{"PERIOD":"95.438","DECAY_DATE":null,"TLE_LINE2":"2 51770  53.2160 210.2944 0001199  87.3955 272.7175 15.08839437 69563","RA_OF_ASC_NODE":"210.2944","GP_ID":"232854991","ELEMENT_SET_NO":"999","PERIAPSIS":"538.918","REF_FRAME":"TEME","SEMIMAJOR_AXIS":"6917.882","MEAN_ANOMALY":"272.7175","MEAN_ELEMENT_THEORY":"SGP4","BSTAR":"0.00000050690000","CLASSIFICATION_TYPE":"U","SITE":"AFWTR","RCS_SIZE":"LARGE","LAUNCH_DATE":"2022-02-25","ECCENTRICITY":"0.00011990","APOAPSIS":"540.577","ARG_OF_PERICENTER":"87.3955","REV_AT_EPOCH":"6956","EPHEMERIS_TYPE":"0","TIME_SYSTEM":"UTC","INCLINATION":"53.2160","OBJECT_TYPE":"PAYLOAD","MEAN_MOTION":"15.08839437","OBJECT_ID":"2022-017C","MEAN_MOTION_DDOT":"0.0000000000000","COUNTRY_CODE":"US","FILE":"3921192","MEAN_MOTION_DOT":"-0.00000280","CENTER_NAME":"EARTH","OBJECT_NAME":"STARLINK-3612","TLE_LINE1":"1 51770U 22017C   23150.87911158 -.00000280  00000-0  50690-6 0  9990","EPOCH":"2023-05-30T21:05:55.240512","NORAD_CAT_ID":"51770"},{"FILE":"3921192","COUNTRY_CODE":"US","MEAN_MOTION_DDOT":"0.0000000000000","OBJECT_ID":"2022-017D","CENTER_NAME":"EARTH","MEAN_MOTION_DOT":"0.00001376","EPOCH":"2023-05-30T20:56:42.093024","OBJECT_NAME":"STARLINK-3614","TLE_LINE1":"1 51771U 22017D   23150.87270941  .00001376  00000-0  10457-3 0  9999","NORAD_CAT_ID":"51771","APOAPSIS":"540.478","REV_AT_EPOCH":"6955","EPHEMERIS_TYPE":"0","ARG_OF_PERICENTER":"92.2024","TIME_SYSTEM":"UTC","MEAN_MOTION":"15.08831692","OBJECT_TYPE":"PAYLOAD","INCLINATION":"53.2157","MEAN_ELEMENT_THEORY":"SGP4","SITE":"AFWTR","CLASSIFICATION_TYPE":"U","BSTAR":"0.00010457000000","LAUNCH_DATE":"2022-02-25","RCS_SIZE":"LARGE","ECCENTRICITY":"0.00010230","DECAY_DATE":null,"PERIOD":"95.438","GP_ID":"232854741","RA_OF_ASC_NODE":"210.3190","TLE_LINE2":"2 51771  53.2157 210.3190 0001023  92.2024 267.9085 15.08831692 69552","ELEMENT_SET_NO":"999","MEAN_ANOMALY":"267.9085","SEMIMAJOR_AXIS":"6917.906","PERIAPSIS":"539.063","REF_FRAME":"TEME"},{"MEAN_ELEMENT_THEORY":"SGP4","CLASSIFICATION_TYPE":"U","SITE":"AFWTR","BSTAR":"0.00001385200000","RCS_SIZE":"LARGE","LAUNCH_DATE":"2022-02-25","ECCENTRICITY":"0.00011260","DECAY_DATE":null,"PERIOD":"95.438","GP_ID":"232853990","TLE_LINE2":"2 51772  53.2156 210.3597 0001126  90.3581 269.7540 15.08836604 69547","RA_OF_ASC_NODE":"210.3597","ELEMENT_SET_NO":"999","SEMIMAJOR_AXIS":"6917.891","MEAN_ANOMALY":"269.7540","REF_FRAME":"TEME","PERIAPSIS":"538.977","COUNTRY_CODE":"US","FILE":"3921192","OBJECT_ID":"2022-017E","MEAN_MOTION_DDOT":"0.0000000000000","CENTER_NAME":"EARTH","MEAN_MOTION_DOT":"-0.00000067","EPOCH":"2023-05-30T20:44:43.409184","TLE_LINE1":"1 51772U 22017E   23150.86439131 -.00000067  00000-0  13852-4 0  9997","OBJECT_NAME":"STARLINK-3623","NORAD_CAT_ID":"51772","APOAPSIS":"540.535","REV_AT_EPOCH":"6954","EPHEMERIS_TYPE":"0","ARG_OF_PERICENTER":"90.3581","TIME_SYSTEM":"UTC","MEAN_MOTION":"15.08836604","OBJECT_TYPE":"PAYLOAD","INCLINATION":"53.2156"},{"MEAN_ELEMENT_THEORY":"SGP4","BSTAR":"0.00003311200000","SITE":"AFWTR","CLASSIFICATION_TYPE":"U","LAUNCH_DATE":"2022-02-25","RCS_SIZE":"LARGE","ECCENTRICITY":"0.00010350","DECAY_DATE":null,"PERIOD":"95.438","RA_OF_ASC_NODE":"210.3268","TLE_LINE2":"2 51773  53.2158 210.3268 0001035  89.4789 270.6322 15.08836935 69550","GP_ID":"232854240","ELEMENT_SET_NO":"999","PERIAPSIS":"539.039","REF_FRAME":"TEME","MEAN_ANOMALY":"270.6322","SEMIMAJOR_AXIS":"6917.890","MEAN_MOTION_DDOT":"0.0000000000000","OBJECT_ID":"2022-017F","FILE":"3921192","COUNTRY_CODE":"US","MEAN_MOTION_DOT":"0.00000239","CENTER_NAME":"EARTH","OBJECT_NAME":"STARLINK-3624","TLE_LINE1":"1 51773U 22017F   23150.87175234  .00000239  00000-0  33112-4 0  9991","EPOCH":"2023-05-30T20:55:19.402176","NORAD_CAT_ID":"51773","APOAPSIS":"540.471","ARG_OF_PERICENTER":"89.4789","REV_AT_EPOCH":"6955","EPHEMERIS_TYPE":"0","TIME_SYSTEM":"UTC","INCLINATION":"53.2158","OBJECT_TYPE":"PAYLOAD","MEAN_MOTION":"15.08836935"},{"RA_OF_ASC_NODE":"210.3924","TLE_LINE2":"2 51774  53.2169 210.3924 0001225  96.6753 263.4379 15.08835535 69517","GP_ID":"232854491","DECAY_DATE":null,"PERIOD":"95.438","REF_FRAME":"TEME","PERIAPSIS":"538.912","MEAN_ANOMALY":"263.4379","SEMIMAJOR_AXIS":"6917.894","ELEMENT_SET_NO":"999","BSTAR":"-0.00003112200000","SITE":"AFWTR","CLASSIFICATION_TYPE":"U","MEAN_ELEMENT_THEORY":"SGP4","ECCENTRICITY":"0.00012250","LAUNCH_DATE":"2022-02-25","RCS_SIZE":"LARGE","ARG_OF_PERICENTER":"96.6753","REV_AT_EPOCH":"6951","EPHEMERIS_TYPE":"0","APOAPSIS":"540.606","INCLINATION":"53.2169","MEAN_MOTION":"15.08835535","OBJECT_TYPE":"PAYLOAD","TIME_SYSTEM":"UTC","MEAN_MOTION_DOT":"-0.00000783","CENTER_NAME":"EARTH","MEAN_MOTION_DDOT":"0.0000000000000","OBJECT_ID":"2022-017G","FILE":"3921192","COUNTRY_CODE":"US","NORAD_CAT_ID":"51774","TLE_LINE1":"1 51774U 22017G   23150.85703189 -.00000783  00000-0 -31122-4 0  9991","OBJECT_NAME":"STARLINK-3629","EPOCH":"2023-05-30T20:34:07.555296"},{"TIME_SYSTEM":"UTC","INCLINATION":"53.2155","OBJECT_TYPE":"PAYLOAD","MEAN_MOTION":"15.08837959","APOAPSIS":"540.415","ARG_OF_PERICENTER":"91.7566","REV_AT_EPOCH":"6955","EPHEMERIS_TYPE":"0","TLE_LINE1":"1 51775U 22017H   23150.86806972  .00000439  00000-0  45645-4 0  9998","OBJECT_NAME":"STARLINK-3620","EPOCH":"2023-05-30T20:50:01.223808","NORAD_CAT_ID":"51775","MEAN_MOTION_DDOT":"0.0000000000000","OBJECT_ID":"2022-017H","FILE":"3921192","COUNTRY_CODE":"US","MEAN_MOTION_DOT":"0.00000439","CENTER_NAME":"EARTH","ELEMENT_SET_NO":"999","PERIAPSIS":"539.088","REF_FRAME":"TEME","MEAN_ANOMALY":"268.3536","SEMIMAJOR_AXIS":"6917.887","PERIOD":"95.438","DECAY_DATE":null,"RA_OF_ASC_NODE":"210.3400","TLE_LINE2":"2 51775  53.2155 210.3400 0000959  91.7566 268.3536 15.08837959 69558","GP_ID":"232855242","LAUNCH_DATE":"2022-02-25","RCS_SIZE":"LARGE","ECCENTRICITY":"0.00009590","MEAN_ELEMENT_THEORY":"SGP4","BSTAR":"0.00004564500000","SITE":"AFWTR","CLASSIFICATION_TYPE":"U"},{"DECAY_DATE":null,"PERIOD":"95.438","GP_ID":"232820313","TLE_LINE2":"2 51776  53.2156 212.4881 0001069  81.4713 278.6401 15.08832416 69445","RA_OF_ASC_NODE":"212.4881","ELEMENT_SET_NO":"999","SEMIMAJOR_AXIS":"6917.904","MEAN_ANOMALY":"278.6401","PERIAPSIS":"539.029","REF_FRAME":"TEME","MEAN_ELEMENT_THEORY":"SGP4","CLASSIFICATION_TYPE":"U","SITE":"AFWTR","BSTAR":"0.00006216100000","RCS_SIZE":"LARGE","LAUNCH_DATE":"2022-02-25","ECCENTRICITY":"0.00010690","APOAPSIS":"540.508","EPHEMERIS_TYPE":"0","REV_AT_EPOCH":"6944","ARG_OF_PERICENTER":"81.4713","TIME_SYSTEM":"UTC","OBJECT_TYPE":"PAYLOAD","MEAN_MOTION":"15.08832416","INCLINATION":"53.2156","COUNTRY_CODE":"US","FILE":"3920920","OBJECT_ID":"2022-017J","MEAN_MOTION_DDOT":"0.0000000000000","CENTER_NAME":"EARTH","MEAN_MOTION_DOT":"0.00000701","EPOCH":"2023-05-30T09:21:07.671168","OBJECT_NAME":"STARLINK-3608","TLE_LINE1":"1 51776U 22017J   23150.38967212  .00000701  00000-0  62161-4 0  9995","NORAD_CAT_ID":"51776"}];
